{
  "type": "FeatureCollection",
  "features": [
    {
      "type": "Feature",
      "properties": {
        "norad_id": 35052,
        "name": "IRIDIUM 33 DEB",
        "group": "iridium-33-debris",
        "lat": 19.61727616113538,
        "lon": -161.04732979455278,
        "alt_km": 761.5334940068296,
        "timestamp": "2025-12-13T05:42:57.956401+00:00",
        "meta_object_name": "IRIDIUM 33 DEB",
        "meta_object_id": "1997-051NY",
        "meta_epoch": "2025-12-11T12:54:27.641952",
        "meta_mean_motion": 14.38490165,
        "meta_eccentricity": 0.00136793,
        "meta_inclination": 86.3312,
        "meta_ra_of_asc_node": 20.9917,
        "meta_arg_of_pericenter": 88.4217,
        "meta_mean_anomaly": 271.8548,
        "meta_ephemeris_type": 0,
        "meta_classification_type": "U",
        "meta_norad_cat_id": 35052,
        "meta_element_set_no": 999,
        "meta_rev_at_epoch": 87258,
        "meta_bstar": 0.00027419057,
        "meta_mean_motion_dot": 8.58e-06,
        "meta_mean_motion_ddot": 0,
        "tle_line1": "1 35052U 97051NY  25345.53781993  .00000858  00000+0  27419-3 0  9997",
        "tle_line2": "2 35052  86.3312  20.9917 0013679  88.4217 271.8548 14.38490165872580"
      },
      "geometry": {
        "type": "Point",
        "coordinates": [
          -161.04732979455278,
          19.61727616113538
        ]
      }
    },
    {
      "type": "Feature",
      "properties": {
        "norad_id": 35080,
        "name": "IRIDIUM 33 DEB",
        "group": "iridium-33-debris",
        "lat": 59.32926984353698,
        "lon": 58.560123783902924,
        "alt_km": 624.3109799519298,
        "timestamp": "2025-12-13T05:42:57.956412+00:00",
        "meta_object_name": "IRIDIUM 33 DEB",
        "meta_object_id": "1997-051PF",
        "meta_epoch": "2025-12-12T03:35:19.907808",
        "meta_mean_motion": 14.85960238,
        "meta_eccentricity": 0.00604695,
        "meta_inclination": 86.207,
        "meta_ra_of_asc_node": 52.6577,
        "meta_arg_of_pericenter": 181.932,
        "meta_mean_anomaly": 178.1681,
        "meta_ephemeris_type": 0,
        "meta_classification_type": "U",
        "meta_norad_cat_id": 35080,
        "meta_element_set_no": 999,
        "meta_rev_at_epoch": 69679,
        "meta_bstar": 0.0091733841,
        "meta_mean_motion_dot": 0.00083628,
        "meta_mean_motion_ddot": 0,
        "tle_line1": "1 35080U 97051PF  25346.14953597  .00083628  00000+0  91734-2 0  9993",
        "tle_line2": "2 35080  86.2070  52.6577 0060469 181.9320 178.1681 14.85960238696797"
      },
      "geometry": {
        "type": "Point",
        "coordinates": [
          58.560123783902924,
          59.32926984353698
        ]
      }
    },
    {
      "type": "Feature",
      "properties": {
        "norad_id": 35297,
        "name": "IRIDIUM 33 DEB",
        "group": "iridium-33-debris",
        "lat": 78.31150564036304,
        "lon": 80.33271745695771,
        "alt_km": 727.8761766160615,
        "timestamp": "2025-12-13T05:42:57.956423+00:00",
        "meta_object_name": "IRIDIUM 33 DEB",
        "meta_object_id": "1997-051PM",
        "meta_epoch": "2025-12-06T00:31:29.302752",
        "meta_mean_motion": 14.45108459,
        "meta_eccentricity": 0.00170329,
        "meta_inclination": 86.3867,
        "meta_ra_of_asc_node": 65.6268,
        "meta_arg_of_pericenter": 161.2449,
        "meta_mean_anomaly": 198.9384,
        "meta_ephemeris_type": 0,
        "meta_classification_type": "U",
        "meta_norad_cat_id": 35297,
        "meta_element_set_no": 999,
        "meta_rev_at_epoch": 70329,
        "meta_bstar": 0.0012426888,
        "meta_mean_motion_dot": 4.371e-05,
        "meta_mean_motion_ddot": 0,
        "tle_line1": "1 35297U 97051PM  25340.02186693  .00004371  00000+0  12427-2 0  9999",
        "tle_line2": "2 35297  86.3867  65.6268 0017032 161.2449 198.9384 14.45108459703293"
      },
      "geometry": {
        "type": "Point",
        "coordinates": [
          80.33271745695771,
          78.31150564036304
        ]
      }
    },
    {
      "type": "Feature",
      "properties": {
        "norad_id": 35299,
        "name": "IRIDIUM 33 DEB",
        "group": "iridium-33-debris",
        "lat": 3.2840937912902954,
        "lon": 33.18273693507018,
        "alt_km": 763.2975500909824,
        "timestamp": "2025-12-13T05:42:57.956434+00:00",
        "meta_object_name": "IRIDIUM 33 DEB",
        "meta_object_id": "1997-051PP",
        "meta_epoch": "2025-12-11T14:23:51.968256",
        "meta_mean_motion": 14.40851716,
        "meta_eccentricity": 0.00589419,
        "meta_inclination": 86.2884,
        "meta_ra_of_asc_node": 33.6823,
        "meta_arg_of_pericenter": 106.0138,
        "meta_mean_anomaly": 45.6441,
        "meta_ephemeris_type": 0,
        "meta_classification_type": "U",
        "meta_norad_cat_id": 35299,
        "meta_element_set_no": 999,
        "meta_rev_at_epoch": 86314,
        "meta_bstar": 0.0011895321,
        "meta_mean_motion_dot": 3.91e-05,
        "meta_mean_motion_ddot": 0,
        "tle_line1": "1 35299U 97051PP  25345.59990704  .00003910  00000+0  11895-2 0  9990",
        "tle_line2": "2 35299  86.2884  33.6823 0058941 106.0138  45.6441 14.40851716863140"
      },
      "geometry": {
        "type": "Point",
        "coordinates": [
          33.18273693507018,
          3.2840937912902954
        ]
      }
    },
    {
      "type": "Feature",
      "properties": {
        "norad_id": 35480,
        "name": "IRIDIUM 33 DEB",
        "group": "iridium-33-debris",
        "lat": 59.50218853938014,
        "lon": -161.5129383027863,
        "alt_km": 709.9885991720403,
        "timestamp": "2025-12-13T05:42:57.956444+00:00",
        "meta_object_name": "IRIDIUM 33 DEB",
        "meta_object_id": "1997-051QA",
        "meta_epoch": "2025-12-09T19:59:43.135296",
        "meta_mean_motion": 14.49744632,
        "meta_eccentricity": 0.00159269,
        "meta_inclination": 86.357,
        "meta_ra_of_asc_node": 26.1722,
        "meta_arg_of_pericenter": 113.2937,
        "meta_mean_anomaly": 246.9945,
        "meta_ephemeris_type": 0,
        "meta_classification_type": "U",
        "meta_norad_cat_id": 35480,
        "meta_element_set_no": 999,
        "meta_rev_at_epoch": 86989,
        "meta_bstar": 0.0009193458,
        "meta_mean_motion_dot": 3.565e-05,
        "meta_mean_motion_ddot": 0,
        "tle_line1": "1 35480U 97051QA  25343.83313814  .00003565  00000+0  91935-3 0  9998",
        "tle_line2": "2 35480  86.3570  26.1722 0015926 113.2937 246.9945 14.49744632869893"
      },
      "geometry": {
        "type": "Point",
        "coordinates": [
          -161.5129383027863,
          59.50218853938014
        ]
      }
    },
    {
      "type": "Feature",
      "properties": {
        "norad_id": 35484,
        "name": "IRIDIUM 33 DEB",
        "group": "iridium-33-debris",
        "lat": 12.338592326697537,
        "lon": -6.690094026226829,
        "alt_km": 578.0617581067127,
        "timestamp": "2025-12-13T05:42:57.956455+00:00",
        "meta_object_name": "IRIDIUM 33 DEB",
        "meta_object_id": "1997-051QE",
        "meta_epoch": "2025-12-12T07:13:32.804832",
        "meta_mean_motion": 14.98607005,
        "meta_eccentricity": 0.0023596,
        "meta_inclination": 86.3611,
        "meta_ra_of_asc_node": 352.9505,
        "meta_arg_of_pericenter": 126.5148,
        "meta_mean_anomaly": 233.8262,
        "meta_ephemeris_type": 0,
        "meta_classification_type": "U",
        "meta_norad_cat_id": 35484,
        "meta_element_set_no": 999,
        "meta_rev_at_epoch": 62009,
        "meta_bstar": 0.0041273462,
        "meta_mean_motion_dot": 0.00050078,
        "meta_mean_motion_ddot": 0,
        "tle_line1": "1 35484U 97051QE  25346.30107413  .00050078  00000+0  41273-2 0  9993",
        "tle_line2": "2 35484  86.3611 352.9505 0023596 126.5148 233.8262 14.98607005620095"
      },
      "geometry": {
        "type": "Point",
        "coordinates": [
          -6.690094026226829,
          12.338592326697537
        ]
      }
    },
    {
      "type": "Feature",
      "properties": {
        "norad_id": 35488,
        "name": "IRIDIUM 33 DEB",
        "group": "iridium-33-debris",
        "lat": 84.30707428048818,
        "lon": 80.49783953502225,
        "alt_km": 599.7930326061833,
        "timestamp": "2025-12-13T05:42:57.956466+00:00",
        "meta_object_name": "IRIDIUM 33 DEB",
        "meta_object_id": "1997-051QJ",
        "meta_epoch": "2025-12-10T07:39:38.233728",
        "meta_mean_motion": 14.82954928,
        "meta_eccentricity": 0.00301497,
        "meta_inclination": 86.3246,
        "meta_ra_of_asc_node": 301.994,
        "meta_arg_of_pericenter": 50.6144,
        "meta_mean_anomaly": 309.7742,
        "meta_ephemeris_type": 0,
        "meta_classification_type": "U",
        "meta_norad_cat_id": 35488,
        "meta_element_set_no": 999,
        "meta_rev_at_epoch": 88230,
        "meta_bstar": 0.0023681949,
        "meta_mean_motion_dot": 0.0001943,
        "meta_mean_motion_ddot": 0,
        "tle_line1": "1 35488U 97051QJ  25344.31919252  .00019430  00000+0  23682-2 0  9999",
        "tle_line2": "2 35488  86.3246 301.9940 0030149  50.6144 309.7742 14.82954928882307"
      },
      "geometry": {
        "type": "Point",
        "coordinates": [
          80.49783953502225,
          84.30707428048818
        ]
      }
    }
  ]
}